[{"OBJECT_NAME":"STARLINK-32224","OBJECT_ID":"2024-155T","EPOCH":"2026-03-09T10:49:51.147552","MEAN_MOTION":15.30191785,"ECCENTRICITY":0.00011615,"INCLINATION":53.16,"RA_OF_ASC_NODE":130.8257,"ARG_OF_PERICENTER":71.2422,"MEAN_ANOMALY":288.8705,"EPHEMERIS_TYPE":0,"CLASSIFICATION_TYPE":"U","NORAD_CAT_ID":60941,"ELEMENT_SET_NO":999,"REV_AT_EPOCH":8631,"BSTAR":9.2169991e-5,"MEAN_MOTION_DOT":2.371e-5,"MEAN_MOTION_DDOT":0},{"OBJECT_NAME":"NOAA 16 DEB","OBJECT_ID":"2000-055BK","EPOCH":"2026-03-09T02:17:10.174560","MEAN_MOTION":15.30191008,"ECCENTRICITY":0.00052528,"INCLINATION":98.9831,"RA_OF_ASC_NODE":305.6383,"ARG_OF_PERICENTER":26.64,"MEAN_ANOMALY":333.5104,"EPHEMERIS_TYPE":0,"CLASSIFICATION_TYPE":"U","NORAD_CAT_ID":41128,"ELEMENT_SET_NO":999,"REV_AT_EPOCH":53406,"BSTAR":0.017668961,"MEAN_MOTION_DOT":0.00549039,"MEAN_MOTION_DDOT":0}]
